algorithm,apogee,argOfPerigee,bStar,classificationMarking,elset_created_at,elset_created_by,dataMode,eccentricity,idElset,idOnOrbit,inclination,line1,line2,meanAnomaly,meanMotion,meanMotionDDot,meanMotionDot,origNetwork,perigee,period,raan,revNo,satNo,semiMajorAxis,source,__START_AT,__END_AT,COUNTRY,LAUNCH,LAUNCH_NUM,LAUNCH_PIECE,NORAD_CAT_ID,OBJECT_ID,OBJECT_NAME,OBJECT_NUMBER,OBJECT_TYPE,RCS_SIZE,SATNAME,SITE,satcat_current_fetch_date
SGP4,6926.089,90.2013,7.7204E-4,U,2024-02-01T05:05:13.762Z,system.ob-ingest,REAL,1.061E-4,56097d17-a386-4965-96ad-f897eb312355,46045,53.0544,1 46045U 20055U   24031.81875310 +.00011236 +00000+0 +77204-3 0 99998,2 46045  53.0544 333.7232 0001061  90.2013 269.9098 15.06398162193139,269.9098,15.06398162,0.0,1.1236E-4,OPS1,6924.619,95.592,333.7232,19313,46045,6925.354,18th SPCS,2024-01-31T19:39:00.267840Z,2024-02-01T03:36:41.940288Z,US,2020-08-07,55,U,46045,2020-055U,STARLINK-1591,46045,PAYLOAD,LARGE,STARLINK-1591,AFETR,2024-08-21
SGP4,6926.555,130.2,-6.052E-6,U,2024-01-31T15:05:13.568Z,system.ob-ingest,REAL,1.72E-4,0c539107-e576-4f2a-929b-7a5f1a795f5e,46156,53.0543,1 46156U 20057AR  24031.50820465 -.00000372 +00000+0 -60520-5 0 99996,2 46156  53.0543 145.1142 0001720 130.2000 229.9140 15.06395088191236,229.914,15.06395088,0.0,-3.72E-6,OPS1,6924.172,95.592,145.1142,19123,46156,6925.364,18th SPCS,2024-01-31T12:11:48.881760Z,2024-02-01T12:04:53.650272Z,US,2020-08-18,57,AR,46156,2020-057AR,STARLINK-1545,46156,PAYLOAD,LARGE,STARLINK-1545,AFETR,2024-08-21
SGP4,6926.402,50.8813,-3.3129E-6,U,2024-02-01T05:05:13.839Z,system.ob-ingest,REAL,1.492E-4,a2e56370-ad55-47e2-85fe-49bbba315c67,46163,53.0528,1 46163U 20057AY  24031.63536840 -.00000331 +00000+0 -33129-5 0 99999,2 46163  53.0528 124.5476 0001492  50.8813 309.2308 15.06393274190864,309.2308,15.06393274,0.0,-3.31E-6,OPS1,6924.336,95.593,124.5476,19086,46163,6925.369,18th SPCS,2024-01-31T15:14:55.829760Z,2024-02-01T11:56:57.861024Z,US,2020-08-18,57,AY,46163,2020-057AY,STARLINK-1610,46163,PAYLOAD,LARGE,STARLINK-1610,AFETR,2024-08-21
SGP4,6926.28,96.6075,1.375E-4,U,2024-01-31T23:05:15.298Z,system.ob-ingest,REAL,1.322E-4,fae770b8-d2cf-4e05-9d0b-eb5bd9e273b7,46348,53.0541,1 46348U 20062Z   24031.49899527 +.00001767 +00000+0 +13750-3 0 99996,2 46348  53.0541 205.1578 0001322  96.6075 263.5064 15.06394742188806,263.5064,15.06394742,0.0,1.767E-5,OPS1,6924.449,95.592,205.1578,18880,46348,6925.365,18th SPCS,2024-01-31T11:58:33.191328Z,2024-02-01T11:51:38.923200Z,US,2020-09-03,62,Z,46348,2020-062Z,STARLINK-1553,46348,PAYLOAD,LARGE,STARLINK-1553,AFETR,2024-08-21
SGP4,6926.432,84.5,1.4275E-4,U,2024-01-31T23:05:15.418Z,system.ob-ingest,REAL,1.56E-4,ebe3966b-2d46-4764-9760-6de22dde1aa8,46715,53.0528,1 46715U 20073AX  24031.56303574 +.00001845 +00000+0 +14275-3 0 99996,2 46715  53.0528  89.8760 0001560  84.5000 275.6167 15.06398943181355,275.6167,15.06398943,0.0,1.845E-5,OPS1,6924.271,95.592,89.876,18135,46715,6925.352,18th SPCS,2024-01-31T13:30:46.287936Z,2024-02-01T13:23:51.424512Z,US,2020-10-18,73,AX,46715,2020-073AX,STARLINK-1817,46715,PAYLOAD,LARGE,STARLINK-1817,AFETR,2024-08-21
SGP4,6926.33,83.0118,1.1086E-4,U,2024-01-31T15:05:13.714Z,system.ob-ingest,REAL,1.444E-4,4baaee69-3daf-495c-85c2-90e70f5ca054,46740,53.0541,1 46740U 20074B   24031.42067851 +.00001370 +00000+0 +11086-3 0 99995,2 46740  53.0541 175.5173 0001444  83.0118 277.1035 15.06406132180826,277.1035,15.06406132,0.0,1.37E-5,OPS1,6924.33,95.592,175.5173,18082,46740,6925.33,18th SPCS,2024-01-31T10:05:46.623264Z,2024-02-01T17:56:32.652960Z,US,2020-10-24,74,B,46740,2020-074B,STARLINK-1848,46740,PAYLOAD,LARGE,STARLINK-1848,AFETR,2024-08-21
SGP4,6926.603,75.0907,-6.965E-5,U,2024-01-31T23:05:15.298Z,system.ob-ingest,REAL,1.742E-4,e65f1efd-1c5f-4dad-993c-7bc1b3999ef5,47139,53.0558,1 47139U 20088T   24031.74322794 -.00001318 +00000+0 -69650-4 0 99993,2 47139  53.0558 154.2745 0001742  75.0907 285.0274 15.06384471176317,285.0274,15.06384471,0.0,-1.318E-5,OPS1,6924.19,95.593,154.2745,17631,47139,6925.396,18th SPCS,2024-01-31T17:50:14.894016Z,2024-02-01T11:21:10.942848Z,US,2020-11-25,88,T,47139,2020-088T,STARLINK-1852,47139,PAYLOAD,LARGE,STARLINK-1852,AFETR,2024-08-21
SGP4,6926.219,84.2347,2.5954E-5,U,2024-01-31T23:05:15.304Z,system.ob-ingest,REAL,1.246E-4,d4d72109-ba10-420f-bde7-a1013cdba30b,47147,53.0548,1 47147U 20088AB  24031.72705855 +.00000105 +00000+0 +25954-4 0 99993,2 47147  53.0548 149.1365 0001246  84.2347 275.8784 15.06397487176342,275.8784,15.06397487,0.0,1.05E-6,OPS1,6924.493,95.592,149.1365,17634,47147,6925.356,18th SPCS,2024-01-31T17:26:57.858720Z,2024-02-01T12:33:26.302176Z,US,2020-11-25,88,AB,47147,2020-088AB,STARLINK-1860,47147,PAYLOAD,LARGE,STARLINK-1860,AFETR,2024-08-21
SGP4,6926.822,99.3964,3.3157E-5,U,2024-01-31T23:05:15.478Z,system.ob-ingest,REAL,2.014E-4,116ee19d-36b5-4a17-bf40-63bc2116c2bc,47370,53.0544,1 47370U 21005X   24031.54646664 +.00000212 +00000+0 +33157-4 0 99996,2 47370  53.0544 229.9476 0002014  99.3964 260.7252 15.06374496167834,260.7252,15.06374496,0.0,2.12E-6,OPS1,6924.032,95.594,229.9476,16783,47370,6925.427,18th SPCS,2024-01-31T13:06:54.717696Z,2024-02-01T16:11:05.434944Z,US,2021-01-20,5,X,47370,2021-005X,STARLINK-2086,47370,PAYLOAD,LARGE,STARLINK-2086,AFETR,2024-08-21
SGP4,6926.266,97.3782,1.2367E-4,U,2024-01-31T23:05:15.451Z,system.ob-ingest,REAL,1.334E-4,144166be-da86-4360-a296-a3b6185561f0,47594,53.0543,1 47594U 21009AY  24031.21656044 +.00001561 +00000+0 +12367-3 0 99992,2 47594  53.0543 251.4282 0001334  97.3782 262.7358 15.06401983164687,262.7358,15.06401983,0.0,1.561E-5,OPS1,6924.419,95.592,251.4282,16468,47594,6925.342,18th SPCS,2024-01-31T05:11:50.822016Z,2024-02-01T16:13:42.631968Z,US,2021-02-04,9,AY,47594,2021-009AY,STARLINK-1999,47594,PAYLOAD,LARGE,STARLINK-1999,AFETR,2024-08-21
SGP4,6926.41,93.0828,1.6852E-4,U,2024-01-31T23:05:15.314Z,system.ob-ingest,REAL,1.541E-4,8ce19080-202c-4770-871d-f106d3c67ef1,47661,53.0528,1 47661U 21012AT  24031.03135670 +.00002230 +00000+0 +16852-3 0 99995,2 47661  53.0528 262.2597 0001541  93.0828 267.0337 15.06401840164393,267.0337,15.0640184,0.0,2.23E-5,OPS1,6924.276,95.592,262.2597,16439,47661,6925.343,18th SPCS,2024-01-31T00:45:09.218880Z,2024-02-01T18:09:10.413792Z,US,2021-02-16,12,AT,47661,2021-012AT,STARLINK-2051,47661,PAYLOAD,LARGE,STARLINK-2051,AFETR,2024-08-21
SGP4,6926.192,92.1033,2.4675E-4,U,2024-01-31T05:05:13.859Z,system.ob-ingest,REAL,1.21E-4,64b3240c-6a4a-4af4-be68-6de931d9c44a,47671,53.0524,1 47671U 21012BD  24030.95025865 +.00003396 +00000+0 +24675-3 0 99996,2 47671  53.0524 262.6198 0001210  92.1033 268.0095 15.06398062164407,268.0095,15.06398062,0.0,3.396E-5,OPS1,6924.517,95.592,262.6198,16440,47671,6925.354,18th SPCS,2024-01-30T22:48:22.347360Z,2024-02-01T00:17:00.426336Z,US,2021-02-16,12,BD,47671,2021-012BD,STARLINK-2064,47671,PAYLOAD,LARGE,STARLINK-2064,AFETR,2024-08-21
SGP4,6926.436,110.1843,2.7497E-4,U,2024-01-31T23:05:15.290Z,system.ob-ingest,REAL,1.55E-4,3a9eb03c-a7b0-4224-aa6f-1eec19aca641,47802,53.0538,1 47802U 21018R   24031.60404160 +.00003816 +00000+0 +27497-3 0 99992,2 47802  53.0538 104.6864 0001550 110.1843 249.9313 15.06395472160410,249.9313,15.06395472,0.0,3.816E-5,OPS1,6924.289,95.592,104.6864,16041,47802,6925.362,18th SPCS,2024-01-31T14:29:49.194240Z,2024-02-01T14:22:54.321312Z,US,2021-03-11,18,R,47802,2021-018R,STARLINK-2383,47802,PAYLOAD,LARGE,STARLINK-2383,AFETR,2024-08-21
SGP4,6926.519,94.2785,9.3976E-5,U,2024-01-31T23:05:15.370Z,system.ob-ingest,REAL,1.623E-4,fd26806a-d4f2-4ecf-8f5b-36c5ff8d0e78,47835,53.0534,1 47835U 21018BA  24031.59299607 +.00001118 +00000+0 +93976-4 0 99993,2 47835  53.0534 104.8705 0001623  94.2785 265.8389 15.06384922160740,265.8389,15.06384922,0.0,1.118E-5,OPS1,6924.271,95.593,104.8705,16074,47835,6925.395,18th SPCS,2024-01-31T14:13:54.860448Z,2024-02-01T10:55:56.212608Z,US,2021-03-11,18,BA,47835,2021-018BA,STARLINK-2425,47835,PAYLOAD,LARGE,STARLINK-2425,AFETR,2024-08-21
SGP4,6926.552,98.709,1.1513E-5,U,2024-02-01T05:05:13.921Z,system.ob-ingest,REAL,1.701E-4,0f40c0ac-3ca0-473c-962b-7c6b719aabdd,47896,53.0561,1 47896U 21021AN  24031.67131345 -.00000110 +00000+0 +11513-4 0 99996,2 47896  53.0561 134.3857 0001701  98.7090 261.4092 15.06391592160179,261.4092,15.06391592,0.0,-1.1E-6,OPS1,6924.196,95.593,134.3857,16017,47896,6925.374,18th SPCS,2024-01-31T16:06:41.482080Z,2024-02-01T11:13:09.143616Z,US,2021-03-14,21,AN,47896,2021-021AN,STARLINK-2356,47896,PAYLOAD,LARGE,STARLINK-2356,AFETR,2024-08-21
SGP4,6926.555,73.226,-1.6879E-4,U,2024-02-01T05:05:13.938Z,system.ob-ingest,REAL,1.641E-4,a6d8b640-dd64-4fc3-a6ad-09602536ece9,47913,53.0559,1 47913U 21021BF  24031.65895598 -.00002793 +00000+0 -16879-3 0 99990,2 47913  53.0559 129.9157 0001641  73.2260 286.8909 15.06377241160295,286.8909,15.06377241,0.0,-2.793E-5,OPS1,6924.282,95.594,129.9157,16029,47913,6925.418,18th SPCS,2024-01-31T15:48:53.796672Z,2024-02-01T10:55:21.289728Z,US,2021-03-14,21,BF,47913,2021-021BF,STARLINK-2374,47913,PAYLOAD,LARGE,STARLINK-2374,AFETR,2024-08-21
SGP4,6557.411,289.7372,0.0027051,U,2022-08-21T17:05:10.083Z,system.ob-ingest,REAL,1.029E-4,89a89ad3-290d-4bcd-a0e8-a4386683aedf,47988,53.021,1 47988U 21024M   22233.60412299 +.21359225 +12236-4 +27051-2 0 99993,2 47988  53.0210 261.6931 0001029 289.7372 165.8143 16.35201297080548,165.8143,16.35201297,1.2236E-5,0.21359225,OPS1,6556.061,88.063,261.6931,8054,47988,6556.736,18th SPCS,2022-08-21T14:29:56.226336Z,"",US,2021-03-24,24,M,47988,2021-024M,STARLINK-2306,47988,PAYLOAD,LARGE,STARLINK-2306,AFETR,2024-08-21
SGP4,6926.528,74.7312,3.7838E-5,U,2024-01-31T15:05:13.636Z,system.ob-ingest,REAL,1.657E-4,4e008ff7-ffbb-49d1-acee-444e8ed96faa,47993,53.0554,1 47993U 21024S   24031.49715077 +.00000282 +00000+0 +37838-4 0 99994,2 47993  53.0554 145.1700 0001657  74.7312 285.3860 15.06389511158811,285.386,15.06389511,0.0,2.82E-6,OPS1,6924.233,95.593,145.17,15881,47993,6925.381,18th SPCS,2024-01-31T11:55:53.826528Z,2024-02-01T11:48:59.103072Z,US,2021-03-24,24,S,47993,2021-024S,STARLINK-2273,47993,PAYLOAD,LARGE,STARLINK-2273,AFETR,2024-08-21
